satNo,name,line1,line2,inclination,apogee,raan,argument_of_perigee,eccentricity,mean_motion,hdbscan_labels
58088,STARLINK-30591,1 58088U 23160P   26026.96663344  .00005106  00000-0  39271-3 0  9995,2 58088  43.0028 306.7963 0001373 268.5375  91.5310 15.02543469126649,43.0028,567.1460205498618,306.7963,268.5375,0.0001373,15.02543469,864
58089,STARLINK-30584,1 58089U 23160Q   26026.96329033  .00005520  00000-0  42316-3 0  9994,2 58089  43.0034 306.7757 0001285 271.6313  88.4382 15.02553386126640,43.0034,567.0544451846862,306.7757,271.6313,0.0001285,15.02553386,864
58090,STARLINK-30590,1 58090U 23160R   26026.83701022  .00000901  00000-0  81735-4 0  9991,2 58090  43.0071 307.5473 0001240 276.9695  83.1006 15.02533579126624,43.0071,567.0842010195526,307.5473,276.9695,0.000124,15.02533579,1227
58091,STARLINK-30608,1 58091U 23160S   26026.82703225  .00004018  00000-0  31262-3 0  9990,2 58091  43.0055 307.4681 0001267 256.3223 103.7478 15.02504617126628,43.0055,567.1920896270722,307.4681,256.3223,0.0001267,15.02504617,1227
58092,STARLINK-30615,1 58092U 23160T   26026.95553576  .00001620  00000-0  13500-3 0  9998,2 58092  43.0012 306.7127 0001437 259.5060 100.5620 15.02535058126641,43.0012,567.2163113022614,306.7127,259.506,0.0001437,15.02535058,864
58093,STARLINK-30578,1 58093U 23160U   26026.80050065 -.00000202  00000-0  10333-6 0  9998,2 58093  43.0042 308.1243 0000220 325.0635  35.0193 15.02533023126610,43.0042,566.3783155857614,308.1243,325.0635,2.2e-05,15.02533023,1241
58094,STARLINK-30574,1 58094U 23160V   26026.95329443  .00003468  00000-0  27155-3 0  9997,2 58094  43.0033 306.6991 0001004 270.8068  89.2660 15.02552495126649,43.0033,566.8622536287317,306.6991,270.8068,0.0001004,15.02552495,864
58095,STARLINK-30570,1 58095U 23160W   26026.94998577  .00001596  00000-0  13320-3 0  9996,2 58095  42.9995 306.6704 0001354 282.0432  78.0259 15.02536595126648,42.9995,567.1540008481629,306.6704,282.0432,0.0001354,15.02536595,864
58096,STARLINK-30581,1 58096U 23160X   26026.81048198  .00001979  00000-0  16150-3 0  9997,2 58096  43.0050 308.1898 0001165 267.0942  92.9767 15.02535263126610,43.005,567.026987868879,308.1898,267.0942,0.0001165,15.02535263,1241
58097,STARLINK-30594,1 58097U 23161A   26027.22502920 -.00002537  00000-0 -73613-4 0  9994,2 58097  53.1631 358.1047 0001184 136.2849 223.8246 15.30182612128079,53.1631,483.2154303768445,358.1047,136.2849,0.0001184,15.30182612,452
58098,STARLINK-30614,1 58098U 23161B   26027.22186370  .00002020  00000-0  80321-4 0  9991,2 58098  53.1618 358.0827 0001246  89.4443 270.6701 15.30197132128077,53.1618,483.21456149857676,358.0827,89.4443,0.0001246,15.30197132,452
58099,STARLINK-30607,1 58099U 23161C   26026.89853938  .00003463  00000-0  12901-3 0  9995,2 58099  53.1616 349.6240 0001025  69.2363 290.8748 15.30192707128150,53.1616,483.07631590835655,349.624,69.2363,0.0001025,15.30192707,1408
58100,STARLINK-30600,1 58100U 23161D   26027.23136342  .00001077  00000-0  48503-4 0  9997,2 58100  53.1626 358.1284 0001399  87.0839 273.0321 15.30191858128074,53.1626,483.3351674270825,358.1284,87.0839,0.0001399,15.30191858,452
58101,STARLINK-30605,1 58101U 23161E   26027.21764207  .00000822  00000-0  39860-4 0  9996,2 58101  53.1608 358.0551 0001006  89.4955 270.6161 15.30197222128077,53.1608,483.04981209175384,358.0551,89.4955,0.0001006,15.30197222,452
58102,STARLINK-30592,1 58102U 23161F   26027.14916302  .00001753  00000-0  71306-4 0  9999,2 58102  53.1599 358.3384 0001246  96.7984 263.3159 15.30193766128067,53.1599,483.22461306993847,358.3384,96.7984,0.0001246,15.30193766,514
58103,STARLINK-30589,1 58103U 23161G   26027.12391495  .00004683  00000-0  17014-3 0  9998,2 58103  53.1610 358.6915 0001411 108.1319 251.9836 15.30199892128059,53.161,483.31939991036893,358.6915,108.1319,0.0001411,15.30199892,490
58104,STARLINK-30617,1 58104U 23161H   26027.12708476  .00014414  00000-0  49778-3 0  9995,2 58104  53.1614 358.7154 0001228  72.1390 287.9744 15.30203363128051,53.1614,483.18361852694954,358.7154,72.139,0.0001228,15.30203363,490
58105,STARLINK-30616,1 58105U 23161J   26027.14858438  .00001221  00000-0  53375-4 0  9993,2 58105  53.1622 345.3830 0001300  63.7838 296.3296 15.30189827128232,53.1622,483.27338404966986,345.383,63.7838,0.00013,15.30189827,-1
58106,STARLINK-30612,1 58106U 23161K   26027.15597142  .00005107  00000-0  18446-3 0  9993,2 58106  53.1609 345.4412 0001331  72.4751 287.6396 15.30196239128240,53.1609,483.2754817655096,345.4412,72.4751,0.0001331,15.30196239,1490
58107,STARLINK-30421,1 58107U 23161L   26027.16124385  .00001657  00000-0  68079-4 0  9994,2 58107  53.1608 345.4418 0001027  81.4167 278.6950 15.30192775128246,53.1608,483.07748352492695,345.4418,81.4167,0.0001027,15.30192775,1490
58108,STARLINK-30611,1 58108U 23161M   26027.11703007  .00008767  00000-0  30781-3 0  9991,2 58108  53.1609 345.8555 0001175  76.0983 284.0149 15.30197942128235,53.1609,483.1634838334247,345.8555,76.0983,0.0001175,15.30197942,1446
58109,STARLINK-30606,1 58109U 23161N   26027.22819774  .00001605  00000-0  66323-4 0  9999,2 58109  53.1616 358.1192 0001334  71.3693 288.7453 15.30193035128071,53.1616,483.2871056730421,358.1192,71.3693,0.0001334,15.30193035,452
58110,STARLINK-30596,1 58110U 23161P   26027.13966602  .00000771  00000-0  38153-4 0  9997,2 58110  53.1612 358.2779 0000829  90.4080 269.7015 15.30195018128066,53.1612,482.9350889333943,358.2779,90.408,8.29e-05,15.30195018,514
58111,STARLINK-30595,1 58111U 23161Q   26027.17554714  .00006820  00000-0  24212-3 0  9990,2 58111  53.1625 358.5019 0001514  89.4457 270.6717 15.30207390128066,53.1625,483.3675984628303,358.5019,89.4457,0.0001514,15.3020739,543
58112,STARLINK-30593,1 58112U 23161R   26027.23769499  .00000986  00000-0  45427-4 0  9995,2 58112  53.1626 358.1760 0001406  76.9939 283.1218 15.30192575128077,53.1626,483.33782363863475,358.176,76.9939,0.0001406,15.30192575,452
58113,STARLINK-30353,1 58113U 23161S   26027.11656402  .00000891  00000-0  42211-4 0  9995,2 58113  53.1606 358.8430 0001160  79.1470 280.9661 15.30196186128056,53.1606,483.15844752055034,358.843,79.147,0.000116,15.30196186,467
58114,STARLINK-30572,1 58114U 23161T   26027.23453228  .00001555  00000-0  64629-4 0  9995,2 58114  53.1623 358.1555 0001327  74.3555 285.7593 15.30190673128077,53.1623,483.2893618167313,358.1555,74.3555,0.0001327,15.30190673,452
58115,STARLINK-30580,1 58115U 23161U   26027.20814503  .00002517  00000-0  97110-4 0  9990,2 58115  53.1620 357.9805 0001426  95.2041 264.9123 15.30193997128061,53.162,483.34728391492183,357.9805,95.2041,0.0001426,15.30193997,452
58116,STARLINK-30493,1 58116U 23161V   26027.17871477  .00001445  00000-0  60913-4 0  9990,2 58116  53.1617 358.5198 0001447  87.1327 272.9840 15.30188776128064,53.1617,483.3772673588125,358.5198,87.1327,0.0001447,15.30188776,543
58117,STARLINK-30601,1 58117U 23161W   26027.11972274 -.00007897  00000-0 -25453-3 0  9990,2 58117  53.1625 358.8663 0000991  59.7873 300.3226 15.30230408128051,53.1625,482.9404363085553,358.8663,59.7873,9.91e-05,15.30230408,467
58118,STARLINK-30795,1 58118U 23162A   26026.90382743  .00001273  00000-0  10928-3 0  9995,2 58118  43.0061   0.2109 0001066 280.4814  79.5908 15.02538236126014,43.0061,566.9491575305443,0.2109,280.4814,0.0001066,15.02538236,1060
58119,STARLINK-30765,1 58119U 23162B   26027.18749589  .00000478  00000-0  50484-4 0  9990,2 58119  43.0022 358.8763 0001283 271.8024  88.2672 15.02534392126056,43.0022,567.1115283392165,358.8763,271.8024,0.0001283,15.02534392,906
58120,STARLINK-30768,1 58120U 23162C   26026.96697862 -.00001419  00000-0 -89981-4 0  9995,2 58120  43.0062 359.8180 0000968 280.3458  79.7275 15.02534773126025,43.0062,566.8918330278201,359.818,280.3458,9.68e-05,15.02534773,1164
58121,STARLINK-30799,1 58121U 23162D   26026.92047708  .00000640  00000-0  62440-4 0  9994,2 58121  43.0058   0.3154 0001038 278.6732  81.3993 15.02534073126012,43.0058,566.9425483998377,0.3154,278.6732,0.0001038,15.02534073,964
58122,STARLINK-30759,1 58122U 23162E   26026.96475463  .00004963  00000-0  38211-3 0  9992,2 58122  43.0034 359.8019 0000939 266.9785  93.0950 15.02542490126033,43.0034,566.8479599750787,359.8019,266.9785,9.39e-05,15.0254249,1164
58123,STARLINK-30781,1 58123U 23162F   26026.96364565  .00005206  00000-0  40007-3 0  9990,2 58123  43.0028 359.7929 0001424 268.8090  91.2590 15.02543609126028,43.0028,567.1809692586912,359.7929,268.809,0.0001424,15.02543609,1164
58124,STARLINK-30754,1 58124U 23162G   26027.18305586  .00000711  00000-0  67702-4 0  9992,2 58124  43.0081 358.8461 0001205 265.7786  94.2918 15.02539072120260,43.0081,567.0430112312957,358.8461,265.7786,0.0001205,15.02539072,906
58125,STARLINK-30766,1 58125U 23162H   26027.22623198  .00000646  00000-0  62916-4 0  9999,2 58125  43.0037 358.3227 0001215 283.4469  76.6238 15.02529146126067,43.0037,567.0805044770148,358.3227,283.4469,0.0001215,15.02529146,855
58126,STARLINK-30767,1 58126U 23162J   26026.95698496  .00000788  00000-0  73421-4 0  9992,2 58126  43.0034 359.7413 0001341 277.7921  82.2769 15.02536937126020,43.0034,567.1439296515929,359.7413,277.7921,0.0001341,15.02536937,1163
58127,STARLINK-30790,1 58127U 23162K   26026.65021473  .00055622  00000-0  34005-2 0  9995,2 58127  43.0020 359.1995 0007125 132.4807 227.6641 15.09457861126008,43.002,549.9201239328347,359.1995,132.4807,0.0007125,15.09457861,906
58128,STARLINK-30787,1 58128U 23162L   26027.21623995  .00000433  00000-0  47098-4 0  9994,2 58128  43.0047 358.2492 0000980 266.4430  93.6300 15.02544008126064,43.0047,566.8717296513729,358.2492,266.443,9.8e-05,15.02544008,855
58129,STARLINK-30756,1 58129U 23162M   26026.98029124  .00003879  00000-0  30202-3 0  9997,2 58129  43.0049 359.9011 0001305 262.0399  98.0296 15.02540066126029,43.0049,567.1093233794691,359.9011,262.0399,0.0001305,15.02540066,-1
